{"type": "FeatureCollection", "features": [ {"type": "Feature", "properties": {"norad_id": 36011, "name": "IRIDIUM 33 DEB", "group": "iridium-33-debris", "lat": 19.309020043170264, "lon": 34.989836740304455, "alt_km": 766.798318092523, "timestamp": "2025-12-16T17:51:11.317845+00:00", "meta": {"OBJECT_NAME": "IRIDIUM 33 DEB", "OBJECT_ID": "1997-051US", "EPOCH": "2025-12-11T21:42:29.079072", "MEAN_MOTION": 14.41326157, "ECCENTRICITY": 0.0017563, "INCLINATION": 86.3411, "RA_OF_ASC_NODE": 35.7829, "ARG_OF_PERICENTER": 218.6873, "MEAN_ANOMALY": 266.0791, "EPHEMERIS_TYPE": 0, "CLASSIFICATION_TYPE": "U", "NORAD_CAT_ID": 36011, "ELEMENT_SET_NO": 999, "REV_AT_EPOCH": 64528, "BSTAR": 0.00076231, "MEAN_MOTION_DOT": 2.489e-05, "MEAN_MOTION_DDOT": 0}, "tle": {"line1": "1 36011U 97051US  25345.90450323  .00002489  00000+0  76231-3 0  9992", "line2": "2 36011  86.3411  35.7829 0017563 218.6873 266.0791 14.41326157645287"}}, "geometry": {"type": "Point", "coordinates": [34.989836740304455, 19.309020043170264]}}, {"type": "Feature", "properties": {"norad_id": 36012, "name": "IRIDIUM 33 DEB", "group": "iridium-33-debris", "lat": -13.610519042297382, "lon": -54.94479411562013, "alt_km": 846.0401317415035, "timestamp": "2025-12-16T17:51:11.317855+00:00", "meta": {"OBJECT_NAME": "IRIDIUM 33 DEB", "OBJECT_ID": "1997-051UT", "EPOCH": "2025-12-15T14:50:29.812704", "MEAN_MOTION": 14.19105959, "ECCENTRICITY": 0.02114565, "INCLINATION": 86.4397, "RA_OF_ASC_NODE": 306.3728, "ARG_OF_PERICENTER": 253.9261, "MEAN_ANOMALY": 103.8553, "EPHEMERIS_TYPE": 0, "CLASSIFICATION_TYPE": "U", "NORAD_CAT_ID": 36012, "ELEMENT_SET_NO": 999, "REV_AT_EPOCH": 65525, "BSTAR": 0.0034696464, "MEAN_MOTION_DOT": 9.086e-05, "MEAN_MOTION_DDOT": 0}, "tle": {"line1": "1 36012U 97051UT  25349.61840061  .00009086  00000+0  34696-2 0  9995", "line2": "2 36012  86.4397 306.3728 0211456 253.9261 103.8553 14.19105959655259"}}, "geometry": {"type": "Point", "coordinates": [-54.94479411562013, -13.610519042297382]}}, {"type": "Feature", "properties": {"norad_id": 36028, "name": "IRIDIUM 33 DEB", "group": "iridium-33-debris", "lat": 84.52779580423386, "lon": -12.999617211972694, "alt_km": 562.7452005829218, "timestamp": "2025-12-16T17:51:11.317866+00:00", "meta": {"OBJECT_NAME": "IRIDIUM 33 DEB", "OBJECT_ID": "1997-051VK", "EPOCH": "2025-12-13T04:21:30.824928", "MEAN_MOTION": 14.95340527, "ECCENTRICITY": 0.00215137, "INCLINATION": 86.3216, "RA_OF_ASC_NODE": 306.4905, "ARG_OF_PERICENTER": 52.2095, "MEAN_ANOMALY": 308.1078, "EPHEMERIS_TYPE": 0, "CLASSIFICATION_TYPE": "U", "NORAD_CAT_ID": 36028, "ELEMENT_SET_NO": 999, "REV_AT_EPOCH": 87131, "BSTAR": 0.0034254157, "MEAN_MOTION_DOT": 0.00038122, "MEAN_MOTION_DDOT": 0}, "tle": {"line1": "1 36028U 97051VK  25347.18160677  .00038122  00000+0  34254-2 0  9993", "line2": "2 36028  86.3216 306.4905 0021513  52.2095 308.1078 14.95340527871316"}}, "geometry": {"type": "Point", "coordinates": [-12.999617211972694, 84.52779580423386]}}, {"type": "Feature", "properties": {"norad_id": 36080, "name": "IRIDIUM 33 DEB", "group": "iridium-33-debris", "lat": -38.883744003843134, "lon": 3.2684475199559304, "alt_km": 756.1081525751752, "timestamp": "2025-12-16T17:51:11.317876+00:00", "meta": {"OBJECT_NAME": "IRIDIUM 33 DEB", "OBJECT_ID": "1997-051VM", "EPOCH": "2025-12-12T07:47:12.921504", "MEAN_MOTION": 14.46603626, "ECCENTRICITY": 0.0018143, "INCLINATION": 86.3202, "RA_OF_ASC_NODE": 8.1679, "ARG_OF_PERICENTER": 158.128, "MEAN_ANOMALY": 202.0701, "EPHEMERIS_TYPE": 0, "CLASSIFICATION_TYPE": "U", "NORAD_CAT_ID": 36080, "ELEMENT_SET_NO": 999, "REV_AT_EPOCH": 47408, "BSTAR": 0.00097514146, "MEAN_MOTION_DOT": 3.542e-05, "MEAN_MOTION_DDOT": 0}, "tle": {"line1": "1 36080U 97051VM  25346.32445511  .00003542  00000+0  97514-3 0  9996", "line2": "2 36080  86.3202   8.1679 0018143 158.1280 202.0701 14.46603626474086"}}, "geometry": {"type": "Point", "coordinates": [3.2684475199559304, -38.883744003843134]}}, {"type": "Feature", "properties": {"norad_id": 36083, "name": "IRIDIUM 33 DEB", "group": "iridium-33-debris", "lat": 4.454577325555019, "lon": 32.71703776676901, "alt_km": 766.1147875821789, "timestamp": "2025-12-16T17:51:11.317887+00:00", "meta": {"OBJECT_NAME": "IRIDIUM 33 DEB", "OBJECT_ID": "1997-051VQ", "EPOCH": "2025-12-06T21:32:26.892672", "MEAN_MOTION": 14.43175138, "ECCENTRICITY": 0.00247889, "INCLINATION": 86.3442, "RA_OF_ASC_NODE": 36.6683, "ARG_OF_PERICENTER": 243.3344, "MEAN_ANOMALY": 116.5319, "EPHEMERIS_TYPE": 0, "CLASSIFICATION_TYPE": "U", "NORAD_CAT_ID": 36083, "ELEMENT_SET_NO": 999, "REV_AT_EPOCH": 85365, "BSTAR": 0.00098432537, "MEAN_MOTION_DOT": 3.337e-05, "MEAN_MOTION_DDOT": 0}, "tle": {"line1": "1 36083U 97051VQ  25340.89753348  .00003337  00000+0  98433-3 0  9998", "line2": "2 36083  86.3442  36.6683 0024788 243.3344 116.5319 14.43175138853653"}}, "geometry": {"type": "Point", "coordinates": [32.71703776676901, 4.454577325555019]}}, {"type": "Feature", "properties": {"norad_id": 36390, "name": "IRIDIUM 33 DEB", "group": "iridium-33-debris", "lat": -80.26349845034831, "lon": 139.76936664618594, "alt_km": 665.1178197196678, "timestamp": "2025-12-16T17:51:11.317897+00:00", "meta": {"OBJECT_NAME": "IRIDIUM 33 DEB", "OBJECT_ID": "1997-051VU", "EPOCH": "2025-12-10T04:13:18.491808", "MEAN_MOTION": 14.73548967, "ECCENTRICITY": 0.00303441, "INCLINATION": 86.2912, "RA_OF_ASC_NODE": 300.5678, "ARG_OF_PERICENTER": 170.4809, "MEAN_ANOMALY": 189.6991, "EPHEMERIS_TYPE": 0, "CLASSIFICATION_TYPE": "U", "NORAD_CAT_ID": 36390, "ELEMENT_SET_NO": 999, "REV_AT_EPOCH": 66224, "BSTAR": 0.0016206136, "MEAN_MOTION_DOT": 0.00010646, "MEAN_MOTION_DDOT": 0}, "tle": {"line1": "1 36390U 97051VU  25344.17590847  .00010646  00000+0  16206-2 0  9995", "line2": "2 36390  86.2912 300.5678 0030344 170.4809 189.6991 14.73548967662240"}}, "geometry": {"type": "Point", "coordinates": [139.76936664618594, -80.26349845034831]}}, {"type": "Feature", "properties": {"norad_id": 36483, "name": "IRIDIUM 33 DEB", "group": "iridium-33-debris", "lat": -25.52718071382775, "lon": -127.49175724014883, "alt_km": 745.3513923854052, "timestamp": "2025-12-16T17:51:11.317907+00:00", "meta": {"OBJECT_NAME": "IRIDIUM 33 DEB", "OBJECT_ID": "1997-051VZ", "EPOCH": "2025-12-13T10:50:21.003936", "MEAN_MOTION": 14.45815478, "ECCENTRICITY": 0.00112504, "INCLINATION": 86.3797, "RA_OF_ASC_NODE": 52.1844, "ARG_OF_PERICENTER": 123.854, "MEAN_ANOMALY": 236.3734, "EPHEMERIS_TYPE": 0, "CLASSIFICATION_TYPE": "U", "NORAD_CAT_ID": 36483, "ELEMENT_SET_NO": 999, "REV_AT_EPOCH": 65156, "BSTAR": 0.00081590403, "MEAN_MOTION_DOT": 2.915e-05, "MEAN_MOTION_DDOT": 0}, "tle": {"line1": "1 36483U 97051VZ  25347.45163199  .00002915  00000+0  81590-3 0  9997", "line2": "2 36483  86.3797  52.1844 0011250 123.8540 236.3734 14.45815478651560"}}, "geometry": {"type": "Point", "coordinates": [-127.49175724014883, -25.52718071382775]}}, {"type": "Feature", "properties": {"norad_id": 36490, "name": "IRIDIUM 33 DEB", "group": "iridium-33-debris", "lat": -0.29511030419004197, "lon": -171.32356892017157, "alt_km": 645.362366751966, "timestamp": "2025-12-16T17:51:11.317918+00:00", "meta": {"OBJECT_NAME": "IRIDIUM 33 DEB", "OBJECT_ID": "1997-051WG", "EPOCH": "2025-12-15T11:45:28.095264", "MEAN_MOTION": 14.76257197, "ECCENTRICITY": 0.00054321, "INCLINATION": 86.3659, "RA_OF_ASC_NODE": 9.2231, "ARG_OF_PERICENTER": 77.7006, "MEAN_ANOMALY": 282.4821, "EPHEMERIS_TYPE": 0, "CLASSIFICATION_TYPE": "U", "NORAD_CAT_ID": 36490, "ELEMENT_SET_NO": 999, "REV_AT_EPOCH": 86525, "BSTAR": 0.00096784251, "MEAN_MOTION_DOT": 6.728e-05, "MEAN_MOTION_DDOT": 0}, "tle": {"line1": "1 36490U 97051WG  25349.48990851  .00006728  00000+0  96784-3 0  9990", "line2": "2 36490  86.3659   9.2231 0005432  77.7006 282.4821 14.76257197865251"}}, "geometry": {"type": "Point", "coordinates": [-171.32356892017157, -0.29511030419004197]}}, {"type": "Feature", "properties": {"norad_id": 36493, "name": "IRIDIUM 33 DEB", "group": "iridium-33-debris", "lat": -55.23944939786, "lon": 4.635949109843816, "alt_km": 678.4883038513217, "timestamp": "2025-12-16T17:51:11.317928+00:00", "meta": {"OBJECT_NAME": "IRIDIUM 33 DEB", "OBJECT_ID": "1997-051WK", "EPOCH": "2025-12-15T19:09:34.038432", "MEAN_MOTION": 14.65273327, "ECCENTRICITY": 0.00098526, "INCLINATION": 86.358, "RA_OF_ASC_NODE": 10.3217, "ARG_OF_PERICENTER": 354.0112, "MEAN_ANOMALY": 6.0982, "EPHEMERIS_TYPE": 0, "CLASSIFICATION_TYPE": "U", "NORAD_CAT_ID": 36493, "ELEMENT_SET_NO": 999, "REV_AT_EPOCH": 74563, "BSTAR": 0.00077312404, "MEAN_MOTION_DOT": 4.191e-05, "MEAN_MOTION_DDOT": 0}, "tle": {"line1": "1 36493U 97051WK  25349.79831063  .00004191  00000+0  77312-3 0  9994", "line2": "2 36493  86.3580  10.3217 0009852 354.0112   6.0982 14.65273327745631"}}, "geometry": {"type": "Point", "coordinates": [4.635949109843816, -55.23944939786]}}, {"type": "Feature", "properties": {"norad_id": 37548, "name": "IRIDIUM 33 DEB", "group": "iridium-33-debris", "lat": -68.27659747924562, "lon": 32.41266684988569, "alt_km": 736.6618049267263, "timestamp": "2025-12-16T17:51:11.317938+00:00", "meta": {"OBJECT_NAME": "IRIDIUM 33 DEB", "OBJECT_ID": "1997-051XH", "EPOCH": "2025-12-15T20:39:30.861504", "MEAN_MOTION": 14.51326297, "ECCENTRICITY": 0.00258157, "INCLINATION": 86.3522, "RA_OF_ASC_NODE": 42.0105, "ARG_OF_PERICENTER": 178.4192, "MEAN_ANOMALY": 181.71, "EPHEMERIS_TYPE": 0, "CLASSIFICATION_TYPE": "U", "NORAD_CAT_ID": 37548, "ELEMENT_SET_NO": 999, "REV_AT_EPOCH": 65577, "BSTAR": 0.00067405053, "MEAN_MOTION_DOT": 2.715e-05, "MEAN_MOTION_DDOT": 0}, "tle": {"line1": "1 37548U 97051XH  25349.86077386  .00002715  00000+0  67405-3 0  9996", "line2": "2 37548  86.3522  42.0105 0025815 178.4192 181.7100 14.51326297655778"}}, "geometry": {"type": "Point", "coordinates": [32.41266684988569, -68.27659747924562]}}]}